<?xml version="1.0" encoding="ISO-8859-1"?><cdm xmlns:ndm="urn:ccsds:recommendation:navigation:schema:ndmxml" xmlns:xsi="http://www.w3.org/2001/XMLSchema-instance" id="CCSDS_CDM_VERS" version="1.0" xsi:noNamespaceSchemaLocation="http://sanaregistry.org/r/ndmxml/ndmxml-1.0-master.xsd"><header><COMMENT>CDM_ID:611673134</COMMENT><COMMENT>EVENT_ID:CA-24001A-90094A-202312021836</COMMENT><CREATION_DATE>2023-11-26T17:34:37.000</CREATION_DATE><ORIGINATOR>CSpOC</ORIGINATOR><MESSAGE_FOR>SAT_1</MESSAGE_FOR><MESSAGE_ID>000000001E_conj_000020923_2023336183714_330173414194</MESSAGE_ID></header><body><relativeMetadataData><TCA>2023-12-02T18:37:14.838</TCA><MISS_DISTANCE units="m">4820.287553663163</MISS_DISTANCE><RELATIVE_SPEED units="m/s">725.3052185114899</RELATIVE_SPEED><relativeStateVector><RELATIVE_POSITION_R units="m">329.1</RELATIVE_POSITION_R><RELATIVE_POSITION_T units="m">4775.2</RELATIVE_POSITION_T><RELATIVE_POSITION_N units="m">569.5</RELATIVE_POSITION_N><RELATIVE_VELOCITY_R units="m/s">-0.9</RELATIVE_VELOCITY_R><RELATIVE_VELOCITY_T units="m/s">-85.9</RELATIVE_VELOCITY_T><RELATIVE_VELOCITY_N units="m/s">720.2</RELATIVE_VELOCITY_N></relativeStateVector><SCREEN_VOLUME_X units="m">0.0</SCREEN_VOLUME_X><SCREEN_VOLUME_Y units="m">0.0</SCREEN_VOLUME_Y><SCREEN_VOLUME_Z units="m">0.0</SCREEN_VOLUME_Z><COLLISION_PROBABILITY>0.0</COLLISION_PROBABILITY><COLLISION_PROBABILITY_METHOD/></relativeMetadataData><segment><metadata><OBJECT>OBJECT1</OBJECT><OBJECT_DESIGNATOR>00001</OBJECT_DESIGNATOR><CATALOG_NAME>SATCAT</CATALOG_NAME><OBJECT_NAME>SAT_1</OBJECT_NAME><INTERNATIONAL_DESIGNATOR>2024-001A</INTERNATIONAL_DESIGNATOR><OBJECT_TYPE>PAYLOAD</OBJECT_TYPE><OPERATOR_CONTACT_POSITION>https://www.space-track.org/expandedspacedata/query/class/organization/object/~~00001/orderby/ORG_NAME,INFO_ID/format/html/emptyresult/show/</OPERATOR_CONTACT_POSITION><OPERATOR_ORGANIZATION>SAT_1</OPERATOR_ORGANIZATION><OPERATOR_PHONE>https://www.space-track.org/expandedspacedata/query/class/organization/object/~~00001/orderby/ORG_NAME,INFO_ID/format/html/emptyresult/show/</OPERATOR_PHONE><OPERATOR_EMAIL>https://www.space-track.org/expandedspacedata/query/class/organization/object/~~00001/orderby/ORG_NAME,INFO_ID/format/html/emptyresult/show/</OPERATOR_EMAIL><EPHEMERIS_NAME>00001_SAT_1-7-WEST-A_3271100_oper_SDC_Unclassified.txt</EPHEMERIS_NAME><COVARIANCE_METHOD>CALCULATED</COVARIANCE_METHOD><MANEUVERABLE>N/A</MANEUVERABLE><REF_FRAME>ITRF</REF_FRAME><GRAVITY_MODEL>CUSTOM: 0D 0O</GRAVITY_MODEL><ATMOSPHERIC_MODEL>JBH09</ATMOSPHERIC_MODEL><N_BODY_PERTURBATIONS>NONE</N_BODY_PERTURBATIONS><SOLAR_RAD_PRESSURE>NO</SOLAR_RAD_PRESSURE><EARTH_TIDES>NO</EARTH_TIDES><INTRACK_THRUST>NO</INTRACK_THRUST></metadata><data><odParameters><RECOMMENDED_OD_SPAN units="d">0.0</RECOMMENDED_OD_SPAN><ACTUAL_OD_SPAN units="d">0.0</ACTUAL_OD_SPAN><OBS_AVAILABLE>0</OBS_AVAILABLE><OBS_USED>0</OBS_USED><RESIDUALS_ACCEPTED units="%">0.0</RESIDUALS_ACCEPTED><WEIGHTED_RMS>0.0</WEIGHTED_RMS></odParameters><additionalParameters><COMMENT>JAC_LAST_ACC_OB = N/A</COMMENT><COMMENT>Screened with = unknown state vector type.</COMMENT><AREA_PC units="m**2">47.6612</AREA_PC><AREA_DRG units="m**2">0.0</AREA_DRG><AREA_SRP units="m**2">0.0</AREA_SRP><MASS units="kg">0.0</MASS><CD_AREA_OVER_MASS units="m**2/kg">0.0</CD_AREA_OVER_MASS><CR_AREA_OVER_MASS units="m**2/kg">0.0</CR_AREA_OVER_MASS></additionalParameters><stateVector><X units="km">41841.22113300004</X><Y units="km">-5327.609386999997</Y><Z units="km">-18.46364000000002</Z><X_DOT units="km/s">0.001702948000000049</X_DOT><Y_DOT units="km/s">-0.0023179540000005544</Y_DOT><Z_DOT units="km/s">0.003993002000000002</Z_DOT></stateVector><covarianceMatrix><CR_R units="m**2">0.0</CR_R><CT_R units="m**2">0.0</CT_R><CT_T units="m**2">0.0</CT_T><CN_R units="m**2">0.0</CN_R><CN_T units="m**2">0.0</CN_T><CN_N units="m**2">0.0</CN_N><CRDOT_R units="m**2/s">0.0</CRDOT_R><CRDOT_T units="m**2/s">0.0</CRDOT_T><CRDOT_N units="m**2/s">0.0</CRDOT_N><CRDOT_RDOT units="m**2/s**2">0.0</CRDOT_RDOT><CTDOT_R units="m**2/s">0.0</CTDOT_R><CTDOT_T units="m**2/s">0.0</CTDOT_T><CTDOT_N units="m**2/s">0.0</CTDOT_N><CTDOT_RDOT units="m**2/s**2">0.0</CTDOT_RDOT><CTDOT_TDOT units="m**2/s**2">0.0</CTDOT_TDOT><CNDOT_R units="m**2/s">0.0</CNDOT_R><CNDOT_T units="m**2/s">0.0</CNDOT_T><CNDOT_N units="m**2/s">0.0</CNDOT_N><CNDOT_RDOT units="m**2/s**2">0.0</CNDOT_RDOT><CNDOT_TDOT units="m**2/s**2">0.0</CNDOT_TDOT><CNDOT_NDOT units="m**2/s**2">0.0</CNDOT_NDOT><CDRG_R units="m**3/kg">0.0</CDRG_R><CDRG_T units="m**3/kg">0.0</CDRG_T><CDRG_N units="m**3/kg">0.0</CDRG_N><CDRG_RDOT units="m**3/(kg*s)">0.0</CDRG_RDOT><CDRG_TDOT units="m**3/(kg*s)">0.0</CDRG_TDOT><CDRG_NDOT units="m**3/(kg*s)">0.0</CDRG_NDOT><CDRG_DRG units="m**4/kg**2">0.0</CDRG_DRG><CSRP_R units="m**3/kg">0.0</CSRP_R><CSRP_T units="m**3/kg">0.0</CSRP_T><CSRP_N units="m**3/kg">0.0</CSRP_N><CSRP_RDOT units="m**3/(kg*s)">0.0</CSRP_RDOT><CSRP_TDOT units="m**3/(kg*s)">0.0</CSRP_TDOT><CSRP_NDOT units="m**3/(kg*s)">0.0</CSRP_NDOT><CSRP_DRG units="m**4/kg**2">0.0</CSRP_DRG><CSRP_SRP units="m**4/kg**2">0.0</CSRP_SRP></covarianceMatrix></data></segment><segment><metadata><OBJECT>OBJECT2</OBJECT><OBJECT_DESIGNATOR>20923</OBJECT_DESIGNATOR><CATALOG_NAME>SATCAT</CATALOG_NAME><OBJECT_NAME>GORIZONT 21</OBJECT_NAME><INTERNATIONAL_DESIGNATOR>1990-094A</INTERNATIONAL_DESIGNATOR><OBJECT_TYPE>PAYLOAD</OBJECT_TYPE><OPERATOR_CONTACT_POSITION>https://www.space-track.org/expandedspacedata/query/class/organization/object/~~20923/orderby/ORG_NAME,INFO_ID/format/html/emptyresult/show/</OPERATOR_CONTACT_POSITION><OPERATOR_ORGANIZATION>- Whitelist-Show public CDMs</OPERATOR_ORGANIZATION><OPERATOR_PHONE>https://www.space-track.org/expandedspacedata/query/class/organization/object/~~20923/orderby/ORG_NAME,INFO_ID/format/html/emptyresult/show/</OPERATOR_PHONE><OPERATOR_EMAIL>https://www.space-track.org/expandedspacedata/query/class/organization/object/~~20923/orderby/ORG_NAME,INFO_ID/format/html/emptyresult/show/</OPERATOR_EMAIL><EPHEMERIS_NAME>NONE</EPHEMERIS_NAME><COVARIANCE_METHOD>CALCULATED</COVARIANCE_METHOD><MANEUVERABLE>N/A</MANEUVERABLE><REF_FRAME>ITRF</REF_FRAME><GRAVITY_MODEL>EGM-96: 8D 8O</GRAVITY_MODEL><ATMOSPHERIC_MODEL>NONE</ATMOSPHERIC_MODEL><N_BODY_PERTURBATIONS>MOON,SUN</N_BODY_PERTURBATIONS><SOLAR_RAD_PRESSURE>YES</SOLAR_RAD_PRESSURE><EARTH_TIDES>YES</EARTH_TIDES><INTRACK_THRUST>NO</INTRACK_THRUST></metadata><data><odParameters><TIME_LASTOB_START>2023-11-25T17:34:37.133</TIME_LASTOB_START><TIME_LASTOB_END>2023-11-26T17:34:37.133</TIME_LASTOB_END><RECOMMENDED_OD_SPAN units="d">26.43</RECOMMENDED_OD_SPAN><ACTUAL_OD_SPAN units="d">26.44</ACTUAL_OD_SPAN><OBS_AVAILABLE>377</OBS_AVAILABLE><OBS_USED>377</OBS_USED><RESIDUALS_ACCEPTED units="%">98.9</RESIDUALS_ACCEPTED><WEIGHTED_RMS>1.023</WEIGHTED_RMS></odParameters><additionalParameters><COMMENT>JAC_LAST_ACC_OB = N/A</COMMENT><COMMENT>Screened with = inertial state vector.</COMMENT><AREA_PC units="m**2">7.4991</AREA_PC><AREA_DRG units="m**2">0.0</AREA_DRG><AREA_SRP units="m**2">0.0</AREA_SRP><MASS units="kg">0.0</MASS><CD_AREA_OVER_MASS units="m**2/kg">0.0</CD_AREA_OVER_MASS><CR_AREA_OVER_MASS units="m**2/kg">0.007362577414</CR_AREA_OVER_MASS></additionalParameters><stateVector><X units="km">41842.15095699998</X><Y units="km">-5322.914747000002</Y><Z units="km">-17.888058000000008</Z><X_DOT units="km/s">-0.009453419000000008</X_DOT><Y_DOT units="km/s">-0.08841184000000005</Y_DOT><Z_DOT units="km/s">0.7240488230000004</Z_DOT></stateVector><covarianceMatrix><CR_R units="m**2">19688.05324423677</CR_R><CT_R units="m**2">-32183.78406193667</CT_R><CT_T units="m**2">922423.4640181871</CT_T><CN_R units="m**2">-102.1190518046391</CN_R><CN_T units="m**2">190.413068271988</CN_T><CN_N units="m**2">768.751406339724</CN_N><CRDOT_R units="m**2/s">2.119197855471427</CRDOT_R><CRDOT_T units="m**2/s">-66.76603090052276</CRDOT_T><CRDOT_N units="m**2/s">-0.01113716840477323</CRDOT_N><CRDOT_RDOT units="m**2/s**2">0.004837390700711272</CRDOT_RDOT><CTDOT_R units="m**2/s">-1.422217761758707</CTDOT_R><CTDOT_T units="m**2/s">1.894918629663447</CTDOT_T><CTDOT_N units="m**2/s">0.007343376215838718</CTDOT_N><CTDOT_RDOT units="m**2/s**2">-1.217662791503708E-4</CTDOT_RDOT><CTDOT_TDOT units="m**2/s**2">1.029548649227852E-4</CTDOT_TDOT><CNDOT_R units="m**2/s">-0.01086782010323555</CNDOT_R><CNDOT_T units="m**2/s">-0.05049189451025957</CNDOT_T><CNDOT_N units="m**2/s">0.04096879135022981</CNDOT_N><CNDOT_RDOT units="m**2/s**2">3.853063700609222E-6</CNDOT_RDOT><CNDOT_TDOT units="m**2/s**2">8.188852275683911E-7</CNDOT_TDOT><CNDOT_NDOT units="m**2/s**2">6.963510977093952E-5</CNDOT_NDOT><CDRG_R units="m**3/kg">0.0</CDRG_R><CDRG_T units="m**3/kg">0.0</CDRG_T><CDRG_N units="m**3/kg">0.0</CDRG_N><CDRG_RDOT units="m**3/(kg*s)">0.0</CDRG_RDOT><CDRG_TDOT units="m**3/(kg*s)">0.0</CDRG_TDOT><CDRG_NDOT units="m**3/(kg*s)">0.0</CDRG_NDOT><CDRG_DRG units="m**4/kg**2">0.0</CDRG_DRG><CSRP_R units="m**3/kg">0.0</CSRP_R><CSRP_T units="m**3/kg">0.0</CSRP_T><CSRP_N units="m**3/kg">0.0</CSRP_N><CSRP_RDOT units="m**3/(kg*s)">0.0</CSRP_RDOT><CSRP_TDOT units="m**3/(kg*s)">0.0</CSRP_TDOT><CSRP_NDOT units="m**3/(kg*s)">0.0</CSRP_NDOT><CSRP_DRG units="m**4/kg**2">0.0</CSRP_DRG><CSRP_SRP units="m**4/kg**2">0.0</CSRP_SRP></covarianceMatrix></data></segment></body></cdm>